BEIJING 1               
1 28890U 05043A   17280.85247154 -.00000039  00000-0  10128-5 0  9993
2 28890  97.8925  71.5928 0015873 151.4842 208.7236 14.61193399636874
HJ-1A                   
1 33320U 08041A   17280.85526492  .00000207  00000-0  36651-4 0  9997
2 33320  97.9249 343.6559 0026927  24.9978 335.2511 14.76836759489415
HJ-1B                   
1 33321U 08041B   17280.85548490  .00000236  00000-0  40523-4 0  9995
2 33321  97.9301 344.9504 0035704  40.1166 320.2640 14.76916918489403
YAOGAN 4                
1 33446U 08061A   17280.79825650  .00000183  00000-0  32842-4 0  9990
2 33446  97.6019 271.2294 0014560 297.9329  62.0408 14.76701167476645
DEIMOS-1                
1 35681U 09041A   17280.65872184 -.00000037  00000-0  17509-5 0  9994
2 35681  97.9367 170.2947 0001623  25.4989 334.6292 14.71688167439683
UK-DMC 2                
1 35683U 09041C   17280.69286317 -.00000039  00000-0  13183-5 0  9993
2 35683  97.8198 155.0779 0001926  74.6894 285.4527 14.70985162439540
RISAT 1                 
1 38248U 12017A   17280.87557854  .00000776  00000-0  52697-4 0  9996
2 38248  97.5750 287.1237 0005358  35.2524  57.7437 15.09252328300230
DMC3-FM1                
1 40715U 15032A   17280.81549918  .00000055  00000-0  16126-4 0  9991
2 40715  98.0256 175.2378 0016891 132.8810 227.3820 14.73689273120782
DMC3-FM2                
1 40716U 15032B   17280.83824178  .00000067  00000-0  17931-4 0  9996
2 40716  98.0274 175.3616 0013904 140.1953 220.0279 14.73700480120794
DMC3-FM3                
1 40717U 15032C   17280.86102111  .00000067  00000-0  18037-4 0  9994
2 40717  98.0258 176.1223 0017819 134.2940 225.9734 14.73686463120793
